ORBCOMM FM20 [+]        
1 25416U 98046D   24016.50856418  .00002027  00000+0  75767-3 0  9990
2 25416  44.9950 107.9727 0001936 218.0613 142.0097 14.34783077329858
ORBCOMM FM16 [-]        
1 25417U 98046E   24016.60858152  .00002746  00000+0  99214-3 0  9990
2 25417  44.9942 104.0615 0005723 221.2461 138.7954 14.35603093329796
ORBCOMM FM15 [-]        
1 25418U 98046F   24016.54412494  .00002513  00000+0  91687-3 0  9997
2 25418  44.9973 108.1650 0005179 223.9892 136.0543 14.35350657329797
ORBCOMM FM14 [-]        
1 25419U 98046G   24016.39509622  .00003279  00000+0  11782-2 0  9998
2 25419  44.9962 108.1211 0003949 215.7474 264.7264 14.35477836329728
ORBCOMM FM13 [+]        
1 25420U 98046H   24016.50326665  .00002564  00000+0  94341-3 0  9996
2 25420  44.9974 111.8824 0006103 207.3578 152.6948 14.34862708328819
ORBCOMM FM21 [-]        
1 25475U 98053A   24016.52059105  .00001691  00000+0  63935-3 0  9993
2 25475  45.0071 195.9858 0001117 152.1882 207.9025 14.34848998322835
ORBCOMM FM22 [-]        
1 25476U 98053B   24016.53647410  .00002065  00000+0  76328-3 0  9993
2 25476  45.0066 193.6224 0002910 147.7444 212.3581 14.35277510322821
ORBCOMM FM23 [-]        
1 25477U 98053C   24016.55101734  .00001843  00000+0  69238-3 0  9995
2 25477  45.0072 198.2926 0002137 145.1181 214.9806 14.34853667322987
