<?xml version="1.0" encoding="UTF-8"?>
<ndm xmlns:xsi="http://www.w3.org/2001/XMLSchema-instance" xsi:noNamespaceSchemaLocation="https://sanaregistry.org/r/ndmxml_unqualified/ndmxml-2.0.0-master-2.0.xsd">
<omm id="CCSDS_OMM_VERS" version="2.0">
<header><CREATION_DATE/><ORIGINATOR/></header><body><segment><metadata><OBJECT_NAME>ORBCOMM FM20 [+]</OBJECT_NAME><OBJECT_ID>1998-046D</OBJECT_ID><CENTER_NAME>EARTH</CENTER_NAME><REF_FRAME>TEME</REF_FRAME><TIME_SYSTEM>UTC</TIME_SYSTEM><MEAN_ELEMENT_THEORY>SGP4</MEAN_ELEMENT_THEORY></metadata><data><meanElements><EPOCH>2024-01-16T12:12:19.945152</EPOCH><MEAN_MOTION>14.34783077</MEAN_MOTION><ECCENTRICITY>.0001936</ECCENTRICITY><INCLINATION>44.9950</INCLINATION><RA_OF_ASC_NODE>107.9727</RA_OF_ASC_NODE><ARG_OF_PERICENTER>218.0613</ARG_OF_PERICENTER><MEAN_ANOMALY>142.0097</MEAN_ANOMALY></meanElements><tleParameters><EPHEMERIS_TYPE>0</EPHEMERIS_TYPE><CLASSIFICATION_TYPE>U</CLASSIFICATION_TYPE><NORAD_CAT_ID>25416</NORAD_CAT_ID><ELEMENT_SET_NO>999</ELEMENT_SET_NO><REV_AT_EPOCH>32985</REV_AT_EPOCH><BSTAR>.75767E-3</BSTAR><MEAN_MOTION_DOT>.2027E-4</MEAN_MOTION_DOT><MEAN_MOTION_DDOT>0</MEAN_MOTION_DDOT></tleParameters></data></segment></body></omm>
<omm id="CCSDS_OMM_VERS" version="2.0">
<header><CREATION_DATE/><ORIGINATOR/></header><body><segment><metadata><OBJECT_NAME>ORBCOMM FM16 [-]</OBJECT_NAME><OBJECT_ID>1998-046E</OBJECT_ID><CENTER_NAME>EARTH</CENTER_NAME><REF_FRAME>TEME</REF_FRAME><TIME_SYSTEM>UTC</TIME_SYSTEM><MEAN_ELEMENT_THEORY>SGP4</MEAN_ELEMENT_THEORY></metadata><data><meanElements><EPOCH>2024-01-16T14:36:21.443328</EPOCH><MEAN_MOTION>14.35603093</MEAN_MOTION><ECCENTRICITY>.0005723</ECCENTRICITY><INCLINATION>44.9942</INCLINATION><RA_OF_ASC_NODE>104.0615</RA_OF_ASC_NODE><ARG_OF_PERICENTER>221.2461</ARG_OF_PERICENTER><MEAN_ANOMALY>138.7954</MEAN_ANOMALY></meanElements><tleParameters><EPHEMERIS_TYPE>0</EPHEMERIS_TYPE><CLASSIFICATION_TYPE>U</CLASSIFICATION_TYPE><NORAD_CAT_ID>25417</NORAD_CAT_ID><ELEMENT_SET_NO>999</ELEMENT_SET_NO><REV_AT_EPOCH>32979</REV_AT_EPOCH><BSTAR>.99214E-3</BSTAR><MEAN_MOTION_DOT>.2746E-4</MEAN_MOTION_DOT><MEAN_MOTION_DDOT>0</MEAN_MOTION_DDOT></tleParameters></data></segment></body></omm>
<omm id="CCSDS_OMM_VERS" version="2.0">
<header><CREATION_DATE/><ORIGINATOR/></header><body><segment><metadata><OBJECT_NAME>ORBCOMM FM15 [-]</OBJECT_NAME><OBJECT_ID>1998-046F</OBJECT_ID><CENTER_NAME>EARTH</CENTER_NAME><REF_FRAME>TEME</REF_FRAME><TIME_SYSTEM>UTC</TIME_SYSTEM><MEAN_ELEMENT_THEORY>SGP4</MEAN_ELEMENT_THEORY></metadata><data><meanElements><EPOCH>2024-01-16T13:03:32.394816</EPOCH><MEAN_MOTION>14.35350657</MEAN_MOTION><ECCENTRICITY>.0005179</ECCENTRICITY><INCLINATION>44.9973</INCLINATION><RA_OF_ASC_NODE>108.1650</RA_OF_ASC_NODE><ARG_OF_PERICENTER>223.9892</ARG_OF_PERICENTER><MEAN_ANOMALY>136.0543</MEAN_ANOMALY></meanElements><tleParameters><EPHEMERIS_TYPE>0</EPHEMERIS_TYPE><CLASSIFICATION_TYPE>U</CLASSIFICATION_TYPE><NORAD_CAT_ID>25418</NORAD_CAT_ID><ELEMENT_SET_NO>999</ELEMENT_SET_NO><REV_AT_EPOCH>32979</REV_AT_EPOCH><BSTAR>.91687E-3</BSTAR><MEAN_MOTION_DOT>.2513E-4</MEAN_MOTION_DOT><MEAN_MOTION_DDOT>0</MEAN_MOTION_DDOT></tleParameters></data></segment></body></omm>
<omm id="CCSDS_OMM_VERS" version="2.0">
<header><CREATION_DATE/><ORIGINATOR/></header><body><segment><metadata><OBJECT_NAME>ORBCOMM FM14 [-]</OBJECT_NAME><OBJECT_ID>1998-046G</OBJECT_ID><CENTER_NAME>EARTH</CENTER_NAME><REF_FRAME>TEME</REF_FRAME><TIME_SYSTEM>UTC</TIME_SYSTEM><MEAN_ELEMENT_THEORY>SGP4</MEAN_ELEMENT_THEORY></metadata><data><meanElements><EPOCH>2024-01-16T09:28:56.313408</EPOCH><MEAN_MOTION>14.35477836</MEAN_MOTION><ECCENTRICITY>.0003949</ECCENTRICITY><INCLINATION>44.9962</INCLINATION><RA_OF_ASC_NODE>108.1211</RA_OF_ASC_NODE><ARG_OF_PERICENTER>215.7474</ARG_OF_PERICENTER><MEAN_ANOMALY>264.7264</MEAN_ANOMALY></meanElements><tleParameters><EPHEMERIS_TYPE>0</EPHEMERIS_TYPE><CLASSIFICATION_TYPE>U</CLASSIFICATION_TYPE><NORAD_CAT_ID>25419</NORAD_CAT_ID><ELEMENT_SET_NO>999</ELEMENT_SET_NO><REV_AT_EPOCH>32972</REV_AT_EPOCH><BSTAR>.11782E-2</BSTAR><MEAN_MOTION_DOT>.3279E-4</MEAN_MOTION_DOT><MEAN_MOTION_DDOT>0</MEAN_MOTION_DDOT></tleParameters></data></segment></body></omm>
<omm id="CCSDS_OMM_VERS" version="2.0">
<header><CREATION_DATE/><ORIGINATOR/></header><body><segment><metadata><OBJECT_NAME>ORBCOMM FM13 [+]</OBJECT_NAME><OBJECT_ID>1998-046H</OBJECT_ID><CENTER_NAME>EARTH</CENTER_NAME><REF_FRAME>TEME</REF_FRAME><TIME_SYSTEM>UTC</TIME_SYSTEM><MEAN_ELEMENT_THEORY>SGP4</MEAN_ELEMENT_THEORY></metadata><data><meanElements><EPOCH>2024-01-16T12:04:42.238560</EPOCH><MEAN_MOTION>14.34862708</MEAN_MOTION><ECCENTRICITY>.0006103</ECCENTRICITY><INCLINATION>44.9974</INCLINATION><RA_OF_ASC_NODE>111.8824</RA_OF_ASC_NODE><ARG_OF_PERICENTER>207.3578</ARG_OF_PERICENTER><MEAN_ANOMALY>152.6948</MEAN_ANOMALY></meanElements><tleParameters><EPHEMERIS_TYPE>0</EPHEMERIS_TYPE><CLASSIFICATION_TYPE>U</CLASSIFICATION_TYPE><NORAD_CAT_ID>25420</NORAD_CAT_ID><ELEMENT_SET_NO>999</ELEMENT_SET_NO><REV_AT_EPOCH>32881</REV_AT_EPOCH><BSTAR>.94341E-3</BSTAR><MEAN_MOTION_DOT>.2564E-4</MEAN_MOTION_DOT><MEAN_MOTION_DDOT>0</MEAN_MOTION_DDOT></tleParameters></data></segment></body></omm>
<omm id="CCSDS_OMM_VERS" version="2.0">
<header><CREATION_DATE/><ORIGINATOR/></header><body><segment><metadata><OBJECT_NAME>ORBCOMM FM21 [-]</OBJECT_NAME><OBJECT_ID>1998-053A</OBJECT_ID><CENTER_NAME>EARTH</CENTER_NAME><REF_FRAME>TEME</REF_FRAME><TIME_SYSTEM>UTC</TIME_SYSTEM><MEAN_ELEMENT_THEORY>SGP4</MEAN_ELEMENT_THEORY></metadata><data><meanElements><EPOCH>2024-01-16T12:29:39.066720</EPOCH><MEAN_MOTION>14.34848998</MEAN_MOTION><ECCENTRICITY>.0001117</ECCENTRICITY><INCLINATION>45.0071</INCLINATION><RA_OF_ASC_NODE>195.9858</RA_OF_ASC_NODE><ARG_OF_PERICENTER>152.1882</ARG_OF_PERICENTER><MEAN_ANOMALY>207.9025</MEAN_ANOMALY></meanElements><tleParameters><EPHEMERIS_TYPE>0</EPHEMERIS_TYPE><CLASSIFICATION_TYPE>U</CLASSIFICATION_TYPE><NORAD_CAT_ID>25475</NORAD_CAT_ID><ELEMENT_SET_NO>999</ELEMENT_SET_NO><REV_AT_EPOCH>32283</REV_AT_EPOCH><BSTAR>.63935E-3</BSTAR><MEAN_MOTION_DOT>.1691E-4</MEAN_MOTION_DOT><MEAN_MOTION_DDOT>0</MEAN_MOTION_DDOT></tleParameters></data></segment></body></omm>
<omm id="CCSDS_OMM_VERS" version="2.0">
<header><CREATION_DATE/><ORIGINATOR/></header><body><segment><metadata><OBJECT_NAME>ORBCOMM FM22 [-]</OBJECT_NAME><OBJECT_ID>1998-053B</OBJECT_ID><CENTER_NAME>EARTH</CENTER_NAME><REF_FRAME>TEME</REF_FRAME><TIME_SYSTEM>UTC</TIME_SYSTEM><MEAN_ELEMENT_THEORY>SGP4</MEAN_ELEMENT_THEORY></metadata><data><meanElements><EPOCH>2024-01-16T12:52:31.362240</EPOCH><MEAN_MOTION>14.35277510</MEAN_MOTION><ECCENTRICITY>.000291</ECCENTRICITY><INCLINATION>45.0066</INCLINATION><RA_OF_ASC_NODE>193.6224</RA_OF_ASC_NODE><ARG_OF_PERICENTER>147.7444</ARG_OF_PERICENTER><MEAN_ANOMALY>212.3581</MEAN_ANOMALY></meanElements><tleParameters><EPHEMERIS_TYPE>0</EPHEMERIS_TYPE><CLASSIFICATION_TYPE>U</CLASSIFICATION_TYPE><NORAD_CAT_ID>25476</NORAD_CAT_ID><ELEMENT_SET_NO>999</ELEMENT_SET_NO><REV_AT_EPOCH>32282</REV_AT_EPOCH><BSTAR>.76328E-3</BSTAR><MEAN_MOTION_DOT>.2065E-4</MEAN_MOTION_DOT><MEAN_MOTION_DDOT>0</MEAN_MOTION_DDOT></tleParameters></data></segment></body></omm>
<omm id="CCSDS_OMM_VERS" version="2.0">
<header><CREATION_DATE/><ORIGINATOR/></header><body><segment><metadata><OBJECT_NAME>ORBCOMM FM23 [-]</OBJECT_NAME><OBJECT_ID>1998-053C</OBJECT_ID><CENTER_NAME>EARTH</CENTER_NAME><REF_FRAME>TEME</REF_FRAME><TIME_SYSTEM>UTC</TIME_SYSTEM><MEAN_ELEMENT_THEORY>SGP4</MEAN_ELEMENT_THEORY></metadata><data><meanElements><EPOCH>2024-01-16T13:13:27.898176</EPOCH><MEAN_MOTION>14.34853667</MEAN_MOTION><ECCENTRICITY>.0002137</ECCENTRICITY><INCLINATION>45.0072</INCLINATION><RA_OF_ASC_NODE>198.2926</RA_OF_ASC_NODE><ARG_OF_PERICENTER>145.1181</ARG_OF_PERICENTER><MEAN_ANOMALY>214.9806</MEAN_ANOMALY></meanElements><tleParameters><EPHEMERIS_TYPE>0</EPHEMERIS_TYPE><CLASSIFICATION_TYPE>U</CLASSIFICATION_TYPE><NORAD_CAT_ID>25477</NORAD_CAT_ID><ELEMENT_SET_NO>999</ELEMENT_SET_NO><REV_AT_EPOCH>32298</REV_AT_EPOCH><BSTAR>.69238E-3</BSTAR><MEAN_MOTION_DOT>.1843E-4</MEAN_MOTION_DOT><MEAN_MOTION_DDOT>0</MEAN_MOTION_DDOT></tleParameters></data></segment></body></omm>

</ndm>
